AREA,PERIMETER,COV_FOREST,COV_FORE_1,PAT_RES,FROGRESV_R,RESNAME,ZONE_,LOG,YR,KM2,FMU,DISTRICT,REGION,KMPROTECT,long,lat
0.000,0.076,2.000,1.000,9000.000,0.000,Zawli Hills,,0.000,0.000,0.000,0.000,,,0.000,,
0.000,0.048,3.000,2.000,9000.000,0.000,Zawli Hills,,0.000,0.000,0.000,0.000,,,0.000,,
0.000,0.050,4.000,3.000,9000.000,0.000,Zawli Hills,,0.000,0.000,0.000,0.000,,,0.000,,
0.000,0.038,5.000,4.000,9000.000,0.000,Uppe Bli,,0.000,0.000,0.000,0.000,,,0.000,,
0.027,1.986,6.000,5.000,9000.000,0.000,Red & White Volta West,,0.000,0.000,0.000,0.000,,,0.000,,
0.008,0.645,7.000,6.000,9000.000,0.000,Tapania Tributries,,0.000,0.000,0.000,0.000,,,0.000,,
0.004,0.535,8.000,7.000,9000.000,0.000,Chana Hills,,0.000,0.000,0.000,0.000,,,0.000,,
0.003,0.279,9.000,8.000,9000.000,0.000,Ghira,,0.000,0.000,0.000,0.000,,,0.000,,
0.001,0.107,10.000,9.000,0.000,0.000,Navrongo North,,0.000,0.000,0.000,0.000,,,0.000,,
0.004,0.289,11.000,10.000,9000.000,0.000,Kulpawn H'Waters,,0.000,0.000,0.000,0.000,,,0.000,,
0.003,0.339,12.000,11.000,9000.000,0.000,Pudo,,0.000,0.000,0.000,0.000,,,0.000,,
0.004,0.292,13.000,12.000,9000.000,0.000,Chasi,,0.000,0.000,0.000,0.000,,,0.000,,
0.004,0.295,14.000,13.000,9000.000,0.000,Nandom,,0.000,0.000,0.000,0.000,,,0.000,,
0.015,1.695,15.000,14.000,9000.000,0.000,Red & White Volta east,,0.000,0.000,0.000,0.000,,,0.000,,
0.000,0.073,16.000,15.000,0.000,0.000,Navrongo North,,0.000,0.000,0.000,0.000,,,0.000,,
0.003,0.238,17.000,16.000,9000.000,0.000,Kambo,,0.000,0.000,0.000,0.000,,,0.000,,
0.003,0.242,18.000,17.000,9000.000,0.000,Tumu,,0.000,0.000,0.000,0.000,,,0.000,,
0.000,0.056,19.000,18.000,9000.000,0.000,Karaka Plantation,,0.000,0.000,0.000,0.000,,,0.000,,
0.021,0.808,20.000,19.000,9000.000,0.000,Ankwai East,,0.000,0.000,0.000,0.000,,,0.000,,
0.004,0.436,21.000,20.000,9000.000,0.000,Bopong,,0.000,0.000,0.000,0.000,,,0.000,,
0.002,0.196,22.000,21.000,9000.000,0.000,Polli,,0.000,0.000,0.000,0.000,,,0.000,,
0.013,0.677,23.000,22.000,9000.000,0.000,Sissili Central,,0.000,0.000,0.000,0.000,,,0.000,,
0.074,1.265,24.000,23.000,8000.000,0.000,Gbele Game Prod. resv.,,0.000,0.000,0.000,0.000,,,0.000,,
0.002,0.163,25.000,24.000,9000.000,0.000,Kandembelli,,0.000,0.000,0.000,0.000,,,0.000,,
0.028,1.501,26.000,25.000,0.000,0.000,Gambaga Scarp E&W,,0.000,0.000,0.000,0.000,,,0.000,,
0.010,0.687,27.000,26.000,9000.000,0.000,Wiaga Kandembelli,,0.000,0.000,0.000,0.000,,,0.000,,
0.004,0.284,28.000,27.000,9000.000,0.000,Red & White Volta East,,0.000,0.000,0.000,0.000,,,0.000,,
0.001,0.120,29.000,28.000,9000.000,0.000,Wiaga,,0.000,0.000,0.000,0.000,,,0.000,,
0.010,0.490,30.000,29.000,9000.000,0.000,Mawbia,,0.000,0.000,0.000,0.000,,,0.000,,
0.001,0.150,31.000,30.000,9000.000,0.000,Fumbesi,,0.000,0.000,0.000,0.000,,,0.000,,
0.002,0.205,32.000,31.000,9000.000,0.000,Pogi,,0.000,0.000,0.000,0.000,,,0.000,,
0.002,0.188,33.000,32.000,9000.000,0.000,Gia,,0.000,0.000,0.000,0.000,,,0.000,,
0.007,0.352,34.000,33.000,9000.000,0.000,Kulpawn Tributries,,0.000,0.000,0.000,0.000,,,0.000,,
0.404,3.280,35.000,34.000,8000.000,0.000,Mole National Park,,0.000,0.000,0.000,0.000,,,0.000,,
0.023,0.907,36.000,35.000,9000.000,0.000,Nasia Tributries,,0.000,0.000,0.000,0.000,,,0.000,,
0.010,0.484,37.000,36.000,9000.000,0.000,Ambalalai,,0.000,0.000,0.000,0.000,,,0.000,,
0.002,0.205,38.000,37.000,9000.000,0.000,Karanja,,0.000,0.000,0.000,0.000,,,0.000,,
0.008,0.404,39.000,38.000,9000.000,0.000,Tanja,,0.000,0.000,0.000,0.000,,,0.000,,
0.011,0.608,40.000,39.000,9000.000,0.000,Daka H'waters,,0.000,0.000,0.000,0.000,,,0.000,,
0.003,0.212,41.000,40.000,9000.000,0.000,Nuale,,0.000,0.000,0.000,0.000,,,0.000,,
0.031,0.775,42.000,41.000,0.000,0.000,Sephe,,0.000,0.000,0.000,0.000,,,0.000,,
0.004,0.273,43.000,42.000,9000.000,0.000,Bilisu,,0.000,0.000,0.000,0.000,,,0.000,,
0.006,0.319,44.000,43.000,9000.000,0.000,Sinsableswani,,0.000,0.000,0.000,0.000,,,0.000,,
0.007,0.364,45.000,44.000,9000.000,0.000,Dunwli,,0.000,0.000,0.000,0.000,,,0.000,,
0.050,1.541,46.000,45.000,9000.000,0.000,Kani Kani,,0.000,0.000,0.000,0.000,,,0.000,,
0.021,0.784,47.000,46.000,9000.000,0.000,Laboni,,0.000,0.000,0.000,0.000,,,0.000,,
0.002,0.269,48.000,47.000,9000.000,0.000,Damongo Scarp,,0.000,0.000,0.000,0.000,,,0.000,,
0.011,0.543,49.000,48.000,9000.000,0.000,Kumbo,,0.000,0.000,0.000,0.000,,,0.000,,
0.053,1.227,50.000,49.000,9000.000,0.000,Yerada,,0.000,0.000,0.000,0.000,,,0.000,,
0.088,1.617,51.000,50.000,9000.000,0.000,Yakombo,,0.000,0.000,0.000,0.000,,,0.000,,
0.011,0.511,52.000,51.000,9000.000,0.000,Lambo,,0.000,0.000,0.000,0.000,,,0.000,,
0.155,1.930,53.000,52.000,8000.000,0.000,Bui Nat. Park,,0.000,0.000,0.000,0.000,,,0.000,,
0.018,0.779,54.000,53.000,9000.000,0.000,Buru,,0.000,0.000,0.000,0.000,,,0.000,,
0.014,1.062,55.000,54.000,74.000,74.000,CHAI RIVER,DSFZ,0.000,62.000,182.300,51.000,Volta,VOLTA,90.000,,
0.012,0.468,56.000,55.000,66.000,66.000,BOSOMOA,DSFZ,0.000,30.000,170.900,18.000,KINTAMPO,BRONG-AHAFO,0.000,,
0.007,0.476,57.000,56.000,37.000,37.000,ASUOKOKO RIVER,DSFZ,0.000,39.000,116.000,51.000,Volta,VOLTA,0.000,,
0.005,0.315,58.000,57.000,28.000,28.000,APEPESU,DSFZ,0.000,54.000,60.600,51.000,Volta,VOLTA,30.000,,
0.012,0.451,59.000,58.000,8000.000,212.000,BOABENG-FIEMA Monkey Sanctuary,DSFZ,0.000,90.000,4.700,99.000,(GWD),ASHANTI,4.700,,
0.227,6.862,60.000,59.000,8000.000,0.000,Digya National Park,,0.000,0.000,0.000,0.000,,,0.000,,
0.007,0.581,61.000,60.000,102.000,102.000,KABO RIVER,DSFZ,0.000,31.000,136.000,51.000,Volta,VOLTA,136.000,,
0.037,1.322,62.000,61.000,36.000,36.000,Tain II,MSNW,91.000,34.000,265.000,17.000,SUNYANI,BRONG-AHAFO,13.300,,
0.005,0.466,63.000,62.000,164.000,164.000,SAWSAW,DSFZ,85.000,76.000,62.900,18.000,SUNYANI,BRONG-AHAFO,0.000,,
0.002,0.220,64.000,63.000,136.000,136.000,NSEMRE,DSFZ,80.000,39.000,18.100,18.000,SUNYANI,BRONG-AHAFO,0.000,,
0.004,0.386,65.000,64.000,223.000,223.000,PRU SHELTERBELT,DSFZ,0.000,0.000,0.000,42.000,MAMPONG,ASHANTI,0.000,,
0.004,0.272,66.000,65.000,65.000,65.000,Yaya,MSNW,91.000,34.000,124.300,20.000,GOASO,BRONG-AHAFO,31.100,,
0.014,0.926,67.000,66.000,155.000,155.000,PAMU BEREKUM,DS-MS,91.000,36.000,189.000,22.000,DORMAA,BRONG-AHAFO,0.000,,
0.006,0.382,68.000,67.000,33.000,33.000,ASUBIMA,DSFZ,89.000,45.000,78.700,33.000,KUMASI N.,ASHANTI,0.000,,
0.012,0.729,69.000,68.000,41.000,41.000,AWURA,DSFZ,89.000,40.000,133.900,42.000,MAMPONG,ASHANTI,6.700,,
0.002,0.221,70.000,69.000,177.000,177.000,TAIN TRIBUTARIES I,DSFZ,91.000,32.000,30.600,18.000,SUNYANI,BRONG-AHAFO,0.000,,
0.008,0.373,71.000,70.000,121.000,121.000,MANKRANG,DSFZ,91.000,33.000,85.500,33.000,KUMASI N.,ASHANTI,11.800,,
0.003,0.274,72.000,71.000,0.000,0.000,Non reserved land,,0.000,0.000,0.000,0.000,,,0.000,,
0.005,0.390,73.000,72.000,196.000,196.000,Afrensu Brohuma,DSFZ,91.000,30.000,51.300,18.000,SUNYANI,BRONG-AHAFO,0.000,,
0.001,0.197,74.000,73.000,145.000,145.000,ODOMI RIVER,DSFZ,0.000,31.000,16.100,51.000,Volta,VOLTA,0.000,,
0.002,0.277,75.000,74.000,6.000,6.000,ABRIMASU,DSFZ,90.000,40.000,2.200,42.000,MAMPONG,ASHANTI,0.100,,
0.010,0.589,76.000,75.000,187.000,187.000,TOGO PLATEAU,DSFZ,0.000,29.000,150.000,51.000,Volta,VOLTA,0.000,,
0.011,0.446,77.000,76.000,9000.000,0.000,Opro River,,0.000,0.000,0.000,0.000,,,0.000,,
0.015,0.742,78.000,77.000,9.000,9.000,AFRAM HEADWATERS,DSFZ,91.000,28.000,201.200,34.000,KUMASI N.,ASHANTI,10.000,,
0.021,0.624,79.000,78.000,141.000,141.000,Asukese,MSSE,91.000,27.000,63.700,49.000,ODA,EASTERN,0.000,,
0.004,0.418,80.000,79.000,16.000,16.000,AMAMA SHELTERBELT,MSNW,88.000,40.000,44.000,17.000,SUNYANI,BRONG-AHAFO,44.000,,
0.028,0.684,81.000,80.000,8000.000,0.000,Kogyae Strict Nat. Reserve,,0.000,0.000,0.000,0.000,,,0.000,,
0.003,0.288,82.000,81.000,4.000,4.000,ABOMA,DSFZ,84.000,32.000,45.600,42.000,MAMPONG,ASHANTI,2.300,,
0.008,0.537,83.000,82.000,76.000,76.000,CHIRIMFA,DSFZ,88.000,32.000,114.000,42.000,MAMPONG,ASHANTI,5.700,,
0.004,0.346,84.000,83.000,9000.000,0.000,Kwamisa,,0.000,0.000,0.000,0.000,,,0.000,,
0.012,0.516,85.000,84.000,67.000,67.000,BOSUMKESE,MSNW,83.000,36.000,138.300,19.000,BECHEM,BRONG-AHAFO,20.700,,
0.028,0.688,86.000,85.000,125.000,125.000,MPAMESO,MSNW,87.000,37.000,322.500,22.000,DORMAA,BRONG-AHAFO,322.500,,
0.001,0.209,87.000,86.000,26.000,26.000,APARAPI SHELTERBELT,MSNW,1.000,39.000,19.200,19.000,BECHEM,BRONG-AHAFO,0.000,,
0.001,0.211,88.000,87.000,92.000,92.000,GIANIMA,DSIZ,88.000,39.000,17.100,34.000,KUMASI N.,ASHANTI,0.000,,
0.002,0.322,89.000,88.000,9000.000,0.000,Asufu S'belt,,0.000,0.000,0.000,0.000,,,0.000,,
0.001,0.128,90.000,89.000,9000.000,0.000,Asufu S'belt,,0.000,0.000,0.000,0.000,,,0.000,,
0.003,0.275,91.000,90.000,125.000,125.000,MPAMESO,MSNW,87.000,37.000,322.500,22.000,DORMAA,BRONG-AHAFO,322.500,,
0.017,0.699,92.000,91.000,50.000,50.000,BIA TANO,MSNW,91.000,37.000,194.000,21.000,GOASO,BRONG-AHAFO,0.000,,
0.004,0.311,93.000,92.000,186.000,186.000,TINTE BEPO,MSNW,92.000,28.000,115.500,36.000,KUMASI W.,ASHANTI,5.800,,
0.006,0.368,94.000,93.000,204.000,204.000,BOMFOBIRI Wildlife Sanctuary,DSIZ,0.000,76.000,50.000,99.000,(GWD),ASHANTI,50.000,,
0.001,0.141,95.000,94.000,146.000,146.000,OFIN HEADWATERS,DSIZ,0.000,27.000,13.000,42.000,MAMPONG,ASHANTI,0.700,,
0.002,0.298,96.000,95.000,93.000,93.000,GOA SHELTERBELT,MSNW,68.000,40.000,23.800,21.000,GOASO,BRONG-AHAFO,0.000,,
0.001,0.132,97.000,96.000,148.000,148.000,"ONGWAM (1,2,3)",DSIZ,0.000,51.000,31.300,42.000,MAMPONG,ASHANTI,30.000,,
0.003,0.254,98.000,97.000,9000.000,0.000,Tinte Bepo,,0.000,0.000,0.000,0.000,,,0.000,,
0.002,0.241,99.000,98.000,9000.000,0.000,Tinte Bepo East,,0.000,0.000,0.000,0.000,,,0.000,,
0.018,0.535,100.000,99.000,61.000,61.000,BOMFOUN,DS,91.000,28.000,113.800,38.000,JUASO,ASHANTI,0.000,,
0.001,0.173,101.000,100.000,113.000,113.000,Ongwam,DSIZ,0.000,28.000,5.700,38.000,JUASO,ASHANTI,5.700,,
0.023,0.877,102.000,101.000,122.000,122.000,MANZAN,MSNW,0.000,72.000,305.000,9.000,JUABOSO,WESTERN,0.000,,
0.029,0.962,103.000,102.000,9000.000,0.000,Bia North,,0.000,0.000,0.000,0.000,,,0.000,,
0.010,0.571,104.000,103.000,9000.000,0.000,Trans Bia,,0.000,0.000,0.000,0.000,,,0.000,,
0.006,0.484,105.000,104.000,132.000,132.000,NORTH BANDAI HILLS,DSFZ,0.000,28.000,72.800,38.000,JUASO,ASHANTI,0.000,,
0.000,0.090,106.000,105.000,220.000,220.000,Krogwam,MSSE,0.000,45.000,1.000,38.000,JUASO,ASHANTI,0.000,,
0.003,0.427,107.000,106.000,110.000,110.000,KPANDU RANGE WEST,DSFZ,0.000,47.000,35.500,51.000,Volta,VOLTA,0.000,,
0.000,0.042,108.000,107.000,9000.000,0.000,Kumawu Water Supply,,0.000,0.000,0.000,0.000,,,0.000,,
0.006,0.321,109.000,108.000,0.000,0.000,Non-reserved land,,0.000,0.000,0.000,0.000,,,0.000,,
0.006,0.354,110.000,109.000,62.000,62.000,BONKONI,MSNW,1.000,34.000,75.100,21.000,GOASO,BRONG-AHAFO,0.000,,
0.031,1.016,111.000,110.000,182.000,182.000,TANO OFIN,MS-UE,91.000,29.000,402.200,35.000,KUMASI W.,ASHANTI,341.900,,
0.017,0.591,112.000,111.000,168.000,168.000,SUBIM,MSNW,91.000,56.000,238.300,20.000,GOASO,BRONG-AHAFO,238.300,,
0.014,0.652,113.000,112.000,44.000,44.000,BANDAI HILLS (SOUTH),DSFZ,91.000,28.000,160.800,38.000,JUASO,ASHANTI,20.000,,
0.000,0.038,114.000,113.000,9000.000,0.000,Asonari,,0.000,0.000,0.000,0.000,,,0.000,,
0.010,0.620,115.000,114.000,9000.000,0.000,Bia Tano BlkI,,0.000,0.000,0.000,0.000,,,0.000,,
0.003,0.305,116.000,115.000,23.000,23.000,ANUM SU North,MSSE,89.000,28.000,43.800,39.000,JUASO,ASHANTI,0.000,,
0.000,0.100,117.000,116.000,24.000,24.000,ANUM SU South,MSSE,89.000,50.000,12.700,39.000,JUASO,ASHANTI,0.000,,
0.010,0.426,118.000,117.000,81.000,81.000,DESIRI,MSNW,91.000,54.000,151.000,21.000,GOASO,BRONG-AHAFO,0.000,,
0.002,0.248,119.000,118.000,109.000,109.000,KPANDU RANGE DAYI BLOCK,DSFZ,0.000,51.000,30.300,51.000,Volta,VOLTA,0.000,,
0.001,0.140,120.000,119.000,106.000,106.000,KLEMU HEADWATERS,DSFZ,0.000,47.000,10.900,51.000,Volta,VOLTA,0.000,,
0.020,1.885,121.000,120.000,167.000,167.000,SOUTHERN SCARP (Kwahu & Akim),MSSE,91.000,35.000,154.600,47.000,MPRAESO,EASTERN,15.500,,
0.005,0.513,122.000,121.000,135.000,135.000,NORTHERN SCARP WEST,DS,69.000,45.000,64.800,46.000,MPRAESO,EASTERN,6.500,,
0.004,0.272,123.000,122.000,133.000,133.000,NORTH FOMANGSU,MSSE,91.000,25.000,42.700,39.000,JUASO,ASHANTI,12.800,,
0.004,0.362,124.000,123.000,9000.000,0.000,Tano offin ext.,,0.000,0.000,0.000,0.000,,,0.000,,
0.001,0.133,125.000,124.000,151.000,151.000,ONYIMSU,MSSE,88.000,0.000,8.500,39.000,JUASO,ASHANTI,0.000,,
0.003,0.291,126.000,125.000,134.000,134.000,NORTHERN SCARP EAST,DS,0.000,35.000,49.200,46.000,MPRAESO,EASTERN,25.000,,
0.010,0.574,127.000,126.000,65.000,65.000,BONSAM BEPO,MSNW,91.000,34.000,124.300,20.000,GOASO,BRONG-AHAFO,31.100,,
0.000,0.063,128.000,127.000,100.000,100.000,KABAKABA HILLS NORTH,DSFZ,0.000,47.000,1.300,51.000,Volta,VOLTA,0.700,,
0.004,0.302,129.000,128.000,57.000,57.000,BOBIRI,MSSE,87.000,39.000,54.600,39.000,JUASO,ASHANTI,0.300,,
0.001,0.113,130.000,129.000,101.000,101.000,KABAKABA HILLS WEST,DSFZ,0.000,47.000,5.400,51.000,Volta,VOLTA,2.700,,
0.003,0.359,131.000,130.000,194.000,194.000,WOROBONG NORTH (KWAHU),DS,0.000,27.000,13.200,46.000,MPRAESO,EASTERN,0.000,,
0.001,0.138,132.000,131.000,9000.000,0.000,Kabakaba East,,0.000,0.000,0.000,0.000,,,0.000,,
0.003,0.438,133.000,132.000,9000.000,0.000,Bonyire S'belt,,0.000,0.000,0.000,0.000,,,0.000,,
0.003,0.204,134.000,133.000,166.000,166.000,SOUTH FOMANGSU,MSSE,91.000,25.000,41.400,39.000,JUASO,ASHANTI,0.000,,
0.001,0.113,135.000,134.000,2.000,2.000,ABISU,DSIZ,0.000,39.000,9.100,46.000,MPRAESO,EASTERN,0.000,,
0.044,1.747,136.000,135.000,126.000,126.000,MURO & Krokosua,MSNW,91.000,51.000,63.500,4.000,WIAWSO,WESTERN,0.000,,
0.002,0.215,137.000,136.000,219.000,219.000,JIMIRA,MSNW,86.000,0.000,0.000,37.000,KUMASI W.,ASHANTI,0.000,,
0.007,0.304,138.000,137.000,203.000,203.000,BIA NATIONAL PARK,MSNW,0.000,74.000,77.700,99.000,(GWD),WESTERN,77.700,,
0.004,0.407,139.000,138.000,79.000,79.000,DEDE,DSFZ,0.000,55.000,51.000,45.000,KOFORIDUA,EASTERN,0.000,,
0.001,0.161,140.000,139.000,9000.000,0.000,Jinmira Ext.,,0.000,0.000,0.000,0.000,,,0.000,,
0.012,0.477,141.000,140.000,172.000,172.000,SUKUSUKU,ME,0.000,72.000,147.600,7.000,JUABOSO,WESTERN,0.000,,
0.027,1.360,142.000,141.000,29.000,29.000,Anwiaso East,MSNW,88.000,38.000,227.900,37.000,KUMASI W.,ASHANTI,22.800,,
0.006,0.321,143.000,142.000,83.000,83.000,DOME RIVER,MSSE,91.000,29.000,8.500,39.000,JUASO,ASHANTI,0.900,,
0.004,0.265,144.000,143.000,228.000,228.000,WOROBONG SOUTH (AKIM),DS,92.000,0.000,106.200,44.000,KOFORIDUA,EASTERN,5.000,,
0.021,0.727,145.000,144.000,8000.000,0.000,Bia Game Prod. Res.,,0.000,0.000,0.000,0.000,,,0.000,,
0.001,0.189,146.000,145.000,210.000,210.000,ABUTIA HILLS,DSFZ,0.000,0.000,0.000,51.000,Volta,VOLTA,0.000,,
0.009,0.455,147.000,146.000,195.000,195.000,WOROBONG SOUTH (KWAHU),MS-DS,75.000,29.000,55.200,47.000,MPRAESO,EASTERN,27.600,,
0.002,0.159,148.000,147.000,97.000,97.000,JENI RIVER,MSNW,87.000,37.000,21.500,40.000,BEKWAI,ASHANTI,0.000,,
0.001,0.106,149.000,148.000,129.000,129.000,NKAWANDA,MSSE,68.000,39.000,8.000,47.000,MPRAESO,EASTERN,0.000,,
0.001,0.210,150.000,149.000,103.000,103.000,KADE BEPO,MSSE,78.000,30.000,16.800,47.000,MPRAESO,EASTERN,16.800,,
0.001,0.148,151.000,150.000,161.000,161.000,PRAKAW,MSSE,83.000,42.000,9.800,39.000,JUASO,ASHANTI,0.000,,
0.006,0.321,152.000,151.000,8000.000,0.000,Kalakpa Game Pro. Res.,,0.000,0.000,0.000,0.000,,,0.000,,
0.001,0.095,153.000,152.000,117.000,117.000,KWEKARU,MSSE,0.000,29.000,11.700,50.000,KADE,EASTERN,5.900,,
0.006,0.367,154.000,153.000,185.000,185.000,TANO SURAW EXTENSION,MS,91.000,35.000,75.100,16.000,BIBIANI,WESTERN,60.100,,
0.010,0.460,155.000,154.000,88.000,88.000,ESUKAWKAW,MSSE,92.000,29.000,122.200,47.000,MPRAESO,EASTERN,0.000,,
0.044,1.081,156.000,155.000,51.000,51.000,BIA TAWYA,ME,0.000,65.000,678.600,6.000,JUABOSO,WESTERN,0.000,,
0.004,0.415,157.000,156.000,124.000,124.000,MIRASA HILLS,MSSE,88.000,37.000,67.300,39.000,JUASO,ASHANTI,60.600,,
0.006,0.547,158.000,157.000,68.000,68.000,BOSUMTWI RANGE,MSSE,86.000,31.000,78.700,40.000,BEKWAI,ASHANTI,39.400,,
0.002,0.185,159.000,158.000,104.000,104.000,KAJEASI,MSSE,92.000,32.000,26.700,50.000,KADE,EASTERN,0.000,,
0.006,0.382,160.000,159.000,180.000,180.000,Tano Suhien,ME,91.000,67.000,176.100,5.000,WIAWSO,WESTERN,0.000,,
0.000,0.067,161.000,160.000,13.000,13.000,AJENJUA BEPO,MSSE,0.000,30.000,5.700,50.000,KADE,EASTERN,4.100,,
0.002,0.194,162.000,161.000,25.000,25.000,APAMPRAMA,MSSE,90.000,52.000,34.700,40.000,BEKWAI,ASHANTI,0.000,,
0.022,0.934,163.000,162.000,173.000,173.000,SUI RIVER,ME-MS,91.000,30.000,333.900,5.000,WIAWSO,WESTERN,167.000,,
0.001,0.141,164.000,163.000,9000.000,0.000,Afram dawa,,0.000,0.000,0.000,0.000,,,0.000,,
0.000,0.084,165.000,164.000,9000.000,0.000,Afram Dawa,,0.000,0.000,0.000,0.000,,,0.000,,
0.002,0.233,166.000,165.000,184.000,184.000,TANO SURAW,MSSE,91.000,34.000,28.500,16.000,BIBIANI,WESTERN,17.100,,
0.017,0.991,167.000,166.000,38.000,38.000,ATEWA RANGE,UE-MS,91.000,26.000,232.300,43.000,KOFORIDUA,EASTERN,174.200,,
0.001,0.115,168.000,167.000,19.000,19.000,ANHWIASO NORTH,MSSE,0.000,26.000,3.600,16.000,BIBIANI,WESTERN,3.200,,
0.009,0.387,169.000,168.000,157.000,157.000,PRA ANUM,MSSE,91.000,8.000,123.300,39.000,AKIM ODA,EASTERN,6.200,,
0.001,0.111,170.000,169.000,9000.000,0.000,Afram Dawa,,0.000,0.000,0.000,0.000,,,0.000,,
0.004,0.431,171.000,170.000,119.000,119.000,MAMANG RIVER,MSSE,0.000,38.000,54.400,50.000,KADE,EASTERN,0.000,,
0.000,0.127,172.000,171.000,9000.000,0.000,Auro River,,0.000,0.000,0.000,0.000,,,0.000,,
0.006,0.571,173.000,172.000,89.000,89.000,FUM HEADWATERS,MSSE,86.000,32.000,72.500,40.000,BEKWAI,ASHANTI,65.300,,
0.001,0.197,174.000,173.000,163.000,163.000,SAPAWSU & EXTENSION,SM,0.000,57.000,15.300,48.000,SOMANYA,EASTERN,15.300,,
0.003,0.305,175.000,174.000,7.000,7.000,AFAO HILLS,MSSE,91.000,0.000,34.700,16.000,BIBIANI,WESTERN,17.400,,
0.001,0.123,176.000,175.000,156.000,156.000,POMPO HEADWATERS,MSSE,0.000,30.000,12.200,40.000,BEKWAI,ASHANTI,12.200,,
0.000,0.087,177.000,176.000,75.000,75.000,CHIREMOASI BEPO,MSSE,90.000,31.000,6.000,40.000,BEKWAI,ASHANTI,6.000,,
0.000,0.115,178.000,177.000,63.000,63.000,Bunkunaw,ME,91.000,39.000,155.400,27.000,DUNKWA,CENTRAL,77.700,,
0.003,0.420,179.000,178.000,191.000,191.000,VOLTA RIVER,DS-SM,0.000,28.000,50.500,48.000,SOMANYA,EASTERN,0.000,,
0.015,0.697,180.000,179.000,58.000,58.000,BODI,ME,91.000,67.000,175.300,6.000,JUABOSO,WESTERN,0.000,,
0.012,0.693,181.000,180.000,144.000,144.000,ODA RIVER,MS-ME,91.000,39.000,164.200,41.000,BEKWAI,ASHANTI,8.200,,
0.000,0.067,182.000,181.000,8000.000,0.000,Bunkunaw Game Res.,,0.000,0.000,0.000,0.000,,,0.000,,
0.006,0.640,183.000,182.000,78.000,78.000,DAMPIA RANGE,MS-ME,61.000,37.000,80.300,41.000,BEKWAI,ASHANTI,48.200,,
0.005,0.320,184.000,183.000,137.000,137.000,NSUENSA,MSSE,91.000,29.000,62.700,50.000,KADE,EASTERN,0.000,,
0.009,0.643,185.000,184.000,190.000,190.000,UPPER WASSAW,ME,88.000,25.000,100.800,16.000,BIBIANI,WESTERN,0.000,,
0.003,0.275,186.000,185.000,12.000,12.000,AIYAOLA,MSSE,91.000,29.000,34.700,50.000,KADE,EASTERN,0.000,,
0.001,0.146,187.000,186.000,45.000,45.000,BEDIAKO,MSSE,91.000,0.000,7.000,50.000,KADE,EASTERN,0.000,,
0.002,0.216,188.000,187.000,139.000,139.000,NYAMIBE BEPO,MSSE,91.000,33.000,22.300,40.000,BEKWAI,ASHANTI,15.600,,
0.029,0.725,189.000,188.000,171.000,171.000,SUHUMA,ME-MS,91.000,35.000,358.500,4.000,WIAWSO,WESTERN,125.500,,
0.002,0.268,190.000,189.000,8.000,8.000,AFIA SHELTERBELT,MSSE,90.000,40.000,21.000,40.000,BEKWAI,ASHANTI,4.200,,
0.000,0.097,191.000,190.000,0.000,0.000,Apedwa,,0.000,0.000,0.000,0.000,,,0.000,,
0.002,0.243,192.000,191.000,150.000,150.000,ONUEM NYAMIBE SHELTERBELT,MSSE,91.000,36.000,24.900,40.000,BEKWAI,ASHANTI,0.000,,
0.003,0.236,193.000,192.000,0.000,0.000,Non-reserved land,,0.000,0.000,0.000,0.000,,,0.000,,
0.003,0.204,194.000,193.000,149.000,149.000,ONUEM BEPO,MSSE,78.000,30.000,34.400,40.000,BEKWAI,ASHANTI,34.400,,
0.012,0.468,195.000,194.000,188.000,188.000,TONTON,ME,91.000,36.000,146.300,28.000,DUNKWA,CENTRAL,7.300,,
0.004,0.455,196.000,195.000,139.000,139.000,Numia,MSSE,91.000,33.000,22.300,40.000,BEKWAI,ASHANTI,15.600,,
0.002,0.299,197.000,196.000,169.000,169.000,SUBIN SHELTERBELT,ME,91.000,40.000,22.500,41.000,BEKWAI,ASHANTI,0.000,,
0.008,0.481,198.000,197.000,131.000,131.000,NKRABIA,ME-MS,91.000,40.000,100.200,41.000,BEKWAI,ASHANTI,10.000,,
0.012,0.510,199.000,198.000,77.000,77.000,DADIASO,WE-ME,80.000,77.000,171.200,14.000,ENCHI,WESTERN,8.600,,
0.017,0.712,200.000,199.000,180.000,180.000,TANO EHURO,ME,91.000,67.000,176.100,5.000,WIAWSO,WESTERN,0.000,,
0.001,0.202,201.000,200.000,176.000,176.000,SUPUMA SHELTERBELT,ME,1.000,38.000,25.000,41.000,BEKWAI,ASHANTI,12.500,,
0.001,0.119,202.000,201.000,80.000,80.000,DENYAU SHELTERBELT,ME,91.000,39.000,12.400,41.000,BEKWAI,ASHANTI,0.000,,
0.001,0.128,203.000,202.000,107.000,107.000,KOKOTINTIN SHELTERBELT,MSSE,90.000,40.000,9.100,40.000,BEKWAI,ASHANTI,0.000,,
0.017,0.726,204.000,203.000,200.000,200.000,YOYO,ME,79.000,32.000,235.700,15.000,ENCHI,WESTERN,23.600,,
0.002,0.282,205.000,204.000,213.000,213.000,CHIPA TRIBUTARIES,SM,0.000,0.000,24.100,48.000,SOMANYA,EASTERN,0.000,,
0.005,0.477,206.000,205.000,189.000,189.000,TOTUA SHELTERBELT,ME,1.000,41.000,63.500,12.000,ASANKRAGWA,WESTERN,0.000,,
0.001,0.117,207.000,206.000,158.000,158.000,PRA BIRIM (N. & S.),MSSE,86.000,37.000,23.600,49.000,ODA,EASTERN,0.000,,
0.004,0.258,208.000,207.000,55.000,55.000,BIRIM,MSSE,91.000,27.000,39.100,49.000,ODA,EASTERN,0.000,,
0.000,0.067,209.000,208.000,207.000,207.000,SHAI HILLS GPR,SO,0.000,71.000,54.400,99.000,(GWD),,54.400,,
0.002,0.284,210.000,209.000,82.000,82.000,DISUE RIVER,WE-ME,78.000,43.000,23.600,14.000,ENCHI,WESTERN,1.200,,
0.008,0.512,211.000,210.000,72.000,72.000,BURA RIVER,ME,91.000,32.000,103.100,12.000,ASANKRAGWA,WESTERN,10.000,,
0.002,0.214,212.000,211.000,56.000,56.000,BIRIM EXTENSION,MSSE,91.000,40.000,21.800,49.000,ODA,EASTERN,2.200,,
0.012,0.509,213.000,212.000,176.000,176.000,Tano Anwia,ME,1.000,38.000,25.000,41.000,BEKWAI,ASHANTI,12.500,,
0.001,0.099,214.000,213.000,215.000,215.000,FIANKONYA STREAM,SM,0.000,0.000,5.500,48.000,SOMANYA,EASTERN,0.000,,
0.007,0.586,215.000,214.000,153.000,153.000,OPON MANSI,ME,91.000,30.000,116.600,26.000,DUNKWA,CENTRAL,58.300,,
0.002,0.195,216.000,215.000,87.000,87.000,ESUBONI,MSSE,91.000,27.000,28.500,49.000,ODA,EASTERN,14.300,,
0.008,0.571,217.000,216.000,70.000,70.000,BOWIYE RANGE,ME,91.000,30.000,120.200,26.000,DUNKWA,CENTRAL,60.100,,
0.004,0.329,218.000,217.000,86.000,86.000,ESEN EPAM,MSSE,88.000,36.000,46.100,49.000,ODA,EASTERN,2.300,,
0.025,0.833,219.000,218.000,60.000,60.000,BOIN RIVER,WE-ME,73.000,32.000,277.600,14.000,ENCHI,WESTERN,13.900,,
0.003,0.254,220.000,219.000,17.000,17.000,ANGOBEN SHELTERBELT,ME,76.000,48.000,34.700,12.000,ASANKRAGWA,WESTERN,1.700,,
0.005,0.287,221.000,220.000,141.000,141.000,OBOYOW,MSSE,91.000,27.000,63.700,49.000,ODA,EASTERN,0.000,,
0.002,0.261,222.000,221.000,123.000,123.000,MINTA,ME,91.000,38.000,21.800,27.000,DUNKWA,CENTRAL,0.000,,
0.001,0.099,223.000,222.000,214.000,214.000,DECHIDAN STREAM,SM,0.000,0.000,3.700,48.000,SOMANYA,EASTERN,0.000,,
0.012,0.726,224.000,223.000,63.000,63.000,BONSA BEN,ME,91.000,39.000,155.400,27.000,DUNKWA,CENTRAL,77.700,,
0.003,0.359,225.000,224.000,46.000,46.000,BEMU,ME,87.000,50.000,43.800,49.000,ODA,EASTERN,0.000,,
0.008,0.763,226.000,225.000,54.000,54.000,BIMPONG,ME,91.000,37.000,104.100,32.000,ASSIN FOSO,CENTRAL,10.400,,
0.000,0.059,227.000,226.000,9000.000,0.000,Ochi,,0.000,0.000,0.000,0.000,,,0.000,,
0.002,0.283,228.000,227.000,111.000,111.000,KROCHUA,ME,0.000,32.000,10.600,32.000,ASSIN FOSO,CENTRAL,0.000,,
0.016,0.661,229.000,228.000,181.000,181.000,TANO NIMIRI,WE-ME,89.000,35.000,205.900,11.000,ASANKRAGWA,WESTERN,0.000,,
0.003,0.289,230.000,229.000,192.000,192.000,WAWAHI,MS-ME,1.000,29.000,138.900,31.000,ASSIN FOSO,CENTRAL,0.000,,
0.004,0.370,231.000,230.000,120.000,120.000,MAMIRI,ME-WE,73.000,0.000,45.300,10.000,ASANKRAGWA,WESTERN,0.000,,
0.000,0.046,232.000,231.000,0.000,0.000,Obimpo,,0.000,0.000,0.000,0.000,,,0.000,,
0.001,0.146,233.000,232.000,130.000,130.000,NKONTO BEN,ME,81.000,50.000,14.500,27.000,DUNKWA,CENTRAL,1.500,,
0.003,0.354,234.000,233.000,175.000,175.000,SUPONG,MSSE,91.000,54.000,35.700,31.000,ASSIN FOSO,CENTRAL,0.000,,
0.012,0.637,235.000,234.000,31.000,31.000,ASIN ATANDASO G.P.R.,ME,0.000,37.000,153.600,31.000,(GWD),CENTRAL,153.600,,
0.000,0.043,236.000,235.000,0.000,0.000,Obotumfuo,,0.000,0.000,0.000,0.000,,,0.000,,
0.002,0.218,237.000,236.000,9000.000,0.000,Ben East,,0.000,0.000,0.000,0.000,,,0.000,,
0.000,0.024,238.000,237.000,0.000,0.000,Obrachere,,0.000,0.000,0.000,0.000,,,0.000,,
0.000,0.027,239.000,238.000,0.000,0.000,Obrachere 1,,0.000,0.000,0.000,0.000,,,0.000,,
0.001,0.165,240.000,239.000,48.000,48.000,BEN WEST,ME,80.000,54.000,21.500,27.000,DUNKWA,CENTRAL,8.600,,
0.010,0.561,241.000,240.000,59.000,59.000,BOI TANO,WE,80.000,68.000,49.600,13.000,ENCHI,WESTERN,44.600,,
0.012,0.569,242.000,241.000,91.000,91.000,FURE HEADWATERS,WE,91.000,40.000,169.600,10.000,ASANKRAGWA,WESTERN,84.800,,
0.002,0.265,243.000,242.000,9000.000,0.000,Ben west,,0.000,0.000,0.000,0.000,,,0.000,,
0.000,0.107,244.000,243.000,43.000,43.000,BAKU,MSSE,0.000,29.000,13.000,31.000,ASSIN FOSO,CENTRAL,0.000,,
0.001,0.159,245.000,244.000,30.000,30.000,ASIN APINAMIN,ME,1.000,27.000,11.400,31.000,ASSIN FOSU,CENTRAL,0.000,,
0.001,0.156,246.000,245.000,9000.000,0.000,Ajensu,,0.000,0.000,0.000,0.000,,,0.000,,
0.014,0.565,247.000,246.000,105.000,105.000,KAKUM N.P.,ME,1.000,31.000,212.400,99.000,(GWD),CENTRAL,212.400,,
0.006,0.354,248.000,247.000,96.000,96.000,JEMA ASSAMKROM,WE,0.000,0.000,66.000,13.000,ENCHI,WESTERN,33.000,,
0.046,1.111,249.000,248.000,170.000,170.000,SUBRI RIVER,ME,91.000,49.000,587.900,52.000,TARKWA,WESTERN,117.600,,
0.010,0.745,250.000,249.000,64.000,64.000,BONSA RIVER,ME,92.000,32.000,160.600,3.000,TARKWA,WESTERN,16.100,,
0.011,0.455,251.000,250.000,90.000,90.000,FURE RIVER,WE,90.000,39.000,158.200,10.000,ASANKRAGWA,WESTERN,15.800,,
0.001,0.101,252.000,251.000,0.000,0.000,Non-reserved land,,0.000,0.000,0.000,0.000,,,0.000,,
0.012,0.517,253.000,252.000,129.000,129.000,NINI-SUHIEN N.P.,WE,0.000,76.000,174.500,99.000,(GWD),WESTERN,174.500,,
0.011,0.752,254.000,253.000,160.000,160.000,PRA SUHIEN 2,ME,91.000,33.000,104.100,24.000,CAPE COAST,CENTRAL,5.200,,
0.027,0.746,255.000,254.000,22.000,22.000,ANKASA GPR,WE,0.000,76.000,348.700,1.000,(GWD),WESTERN,348.700,,
0.016,0.664,256.000,255.000,84.000,84.000,DRAW RIVER,WE,91.000,37.000,235.400,1.000,TARKWA,WESTERN,0.000,,
0.000,0.122,257.000,256.000,71.000,71.000,BRIMSO,SM-DS,0.000,51.000,10.600,25.000,CAPE COAST,CENTRAL,0.000,,
0.005,0.359,258.000,257.000,127.000,127.000,NDUMFRI,WE,82.000,37.000,72.500,2.000,TARKWA,WESTERN,21.800,,
0.002,0.215,259.000,258.000,128.000,128.000,"NEUNG (-> 209,210)",WE-ME,89.000,54.000,0.000,2.000,TARKWA,WESTERN,0.000,,
0.010,0.619,260.000,259.000,208.000,208.000,NEUNG SOUTH (split ex Neung),WE,0.000,0.000,113.000,2.000,TARKWA,WESTERN,11.300,,
0.001,0.317,261.000,260.000,85.000,85.000,EBI RIVER SHELTERBELT,WE,88.000,41.000,26.000,1.000,TARKWA,WESTERN,2.600,,
0.000,0.087,262.000,261.000,165.000,165.000,SEKONDI WATERWORKS 1 & 2,MSSE,0.000,38.000,10.100,25.000,TAKORADI,WESTERN,0.000,,
0.004,0.331,263.000,262.000,73.000,73.000,CAPE THREE POINTS,ME-WE,76.000,50.000,19.700,3.000,TARKWA,WESTERN,10.000,,
